IRIDIUM 921 [-]         
1 24873U 97034E   23328.18812791  .00020411  00000+0  74327-3 0  9995
2 24873  86.3896  29.0538 0003139 337.8583  22.2528 15.28092238443907
IRIDIUM 26 [-]          
1 24903U 97043A   23327.61632381  .00000616  00000+0  20516-3 0  9997
2 24903  86.3964 350.4420 0002213  97.9650 262.1798 14.36088563374685
IRIDIUM 22 [-]          
1 24907U 97043E   23327.58293614  .00000570  00000+0  19336-3 0  9996
2 24907  86.3971 353.5280 0002162  91.8222 268.3222 14.34994832374768
DUMMY MASS 1 [-]        
1 24925U 97048A   23328.14609855  .00000656  00000+0  71977-4 0  9997
2 24925  86.3375  39.1535 0007612  27.9479 332.2153 14.85936089420543
DUMMY MASS 2 [-]        
1 24926U 97048B   23327.74528628  .00000638  00000+0  70363-4 0  9999
2 24926  86.3376  40.8450 0008828  36.6842 323.4985 14.85696499420038
IRIDIUM 29 [-]          
1 24944U 97051A   23328.20890912  .00000664  00000+0  22427-3 0  9999
2 24944  86.3987  23.2240 0002020  87.6504 272.4924 14.35451021371550
IRIDIUM 33 [-]          
1 24946U 97051C   23328.25720176  .00000430  00000+0  14640-3 0  9999
2 24946  86.3902  22.4748 0009499 131.6823 228.5187 14.34182813370904
IRIDIUM 28 [-]          
1 24948U 97051E   23328.20917974  .00000625  00000+0  20694-3 0  9992
2 24948  86.3992  21.0688 0002385 103.1328 257.0135 14.36395750371925
